CCSDS_OMM_VERS = 2.0
CREATION_DATE  = 
ORIGINATOR     = 

OBJECT_NAME    = SL-4 R/B
OBJECT_ID      = 2014-021B
CENTER_NAME    = EARTH
REF_FRAME      = TEME
TIME_SYSTEM    = UTC
MEAN_ELEMENT_THEORY = SGP/SGP4

EPOCH          = 2026-02-19T10:41:07.732032
MEAN_MOTION    = 15.38532899
ECCENTRICITY   = .00988104
INCLINATION    = 51.6064
RA_OF_ASC_NODE = 66.2379
ARG_OF_PERICENTER = 36.4555
MEAN_ANOMALY   = 324.3103

EPHEMERIS_TYPE = 0
CLASSIFICATION_TYPE = U
NORAD_CAT_ID   = 39679
ELEMENT_SET_NO = 999
REV_AT_EPOCH   = 65346
BSTAR          = .30212925E-3
MEAN_MOTION_DOT = .13389E-3
MEAN_MOTION_DDOT = 0

CCSDS_OMM_VERS = 2.0
CREATION_DATE  = 
ORIGINATOR     = 

OBJECT_NAME    = ALOS-2
OBJECT_ID      = 2014-029A
CENTER_NAME    = EARTH
REF_FRAME      = TEME
TIME_SYSTEM    = UTC
MEAN_ELEMENT_THEORY = SGP/SGP4

EPOCH          = 2026-02-19T14:14:20.426208
MEAN_MOTION    = 14.79465270
ECCENTRICITY   = .00016002
INCLINATION    = 97.9211
RA_OF_ASC_NODE = 149.4518
ARG_OF_PERICENTER = 100.6964
MEAN_ANOMALY   = 259.4428

EPHEMERIS_TYPE = 0
CLASSIFICATION_TYPE = U
NORAD_CAT_ID   = 39766
ELEMENT_SET_NO = 999
REV_AT_EPOCH   = 63419
BSTAR          = .47271602E-4
MEAN_MOTION_DOT = .302E-5
MEAN_MOTION_DDOT = 0

CCSDS_OMM_VERS = 2.0
CREATION_DATE  = 
ORIGINATOR     = 

OBJECT_NAME    = YAOGAN-29
OBJECT_ID      = 2015-069A
CENTER_NAME    = EARTH
REF_FRAME      = TEME
TIME_SYSTEM    = UTC
MEAN_ELEMENT_THEORY = SGP/SGP4

EPOCH          = 2026-02-19T15:27:50.370336
MEAN_MOTION    = 14.82976065
ECCENTRICITY   = .00027845
INCLINATION    = 98.0160
RA_OF_ASC_NODE = 79.0235
ARG_OF_PERICENTER = 65.6659
MEAN_ANOMALY   = 294.4844

EPHEMERIS_TYPE = 0
CLASSIFICATION_TYPE = U
NORAD_CAT_ID   = 41038
ELEMENT_SET_NO = 999
REV_AT_EPOCH   = 55320
BSTAR          = .12417123E-3
MEAN_MOTION_DOT = .954E-5
MEAN_MOTION_DDOT = 0

CCSDS_OMM_VERS = 2.0
CREATION_DATE  = 
ORIGINATOR     = 

OBJECT_NAME    = ASTRO-H (HITOMI)
OBJECT_ID      = 2016-012A
CENTER_NAME    = EARTH
REF_FRAME      = TEME
TIME_SYSTEM    = UTC
MEAN_ELEMENT_THEORY = SGP/SGP4

EPOCH          = 2026-02-19T12:30:23.794272
MEAN_MOTION    = 15.09865752
ECCENTRICITY   = .00098685
INCLINATION    = 30.9991
RA_OF_ASC_NODE = 113.7798
ARG_OF_PERICENTER = 150.4198
MEAN_ANOMALY   = 209.7000

EPHEMERIS_TYPE = 0
CLASSIFICATION_TYPE = U
NORAD_CAT_ID   = 41337
ELEMENT_SET_NO = 999
REV_AT_EPOCH   = 54948
BSTAR          = .17551424E-3
MEAN_MOTION_DOT = .3009E-4
MEAN_MOTION_DDOT = 0

CCSDS_OMM_VERS = 2.0
CREATION_DATE  = 
ORIGINATOR     = 

OBJECT_NAME    = HXMT (HUIYAN)
OBJECT_ID      = 2017-034A
CENTER_NAME    = EARTH
REF_FRAME      = TEME
TIME_SYSTEM    = UTC
MEAN_ELEMENT_THEORY = SGP/SGP4

EPOCH          = 2026-02-19T14:37:03.620352
MEAN_MOTION    = 15.17224412
ECCENTRICITY   = .00306647
INCLINATION    = 43.0141
RA_OF_ASC_NODE = 117.1751
ARG_OF_PERICENTER = 121.5569
MEAN_ANOMALY   = 238.8280

EPHEMERIS_TYPE = 0
CLASSIFICATION_TYPE = U
NORAD_CAT_ID   = 42758
ELEMENT_SET_NO = 999
REV_AT_EPOCH   = 47979
BSTAR          = .26732055E-3
MEAN_MOTION_DOT = .5238E-4
MEAN_MOTION_DDOT = 0

CCSDS_OMM_VERS = 2.0
CREATION_DATE  = 
ORIGINATOR     = 

OBJECT_NAME    = CZ-2C R/B
OBJECT_ID      = 2018-054D
CENTER_NAME    = EARTH
REF_FRAME      = TEME
TIME_SYSTEM    = UTC
MEAN_ELEMENT_THEORY = SGP/SGP4

EPOCH          = 2026-02-19T10:06:51.482016
MEAN_MOTION    = 16.06843090
ECCENTRICITY   = .00114362
INCLINATION    = 35.1271
RA_OF_ASC_NODE = 67.0775
ARG_OF_PERICENTER = 135.6943
MEAN_ANOMALY   = 224.4717

EPHEMERIS_TYPE = 0
CLASSIFICATION_TYPE = U
NORAD_CAT_ID   = 43521
ELEMENT_SET_NO = 999
REV_AT_EPOCH   = 42596
BSTAR          = .866385E-3
MEAN_MOTION_DOT = .708804E-2
MEAN_MOTION_DDOT = .24941892E-3

CCSDS_OMM_VERS = 2.0
CREATION_DATE  = 
ORIGINATOR     = 

OBJECT_NAME    = SAOCOM 1A
OBJECT_ID      = 2018-076A
CENTER_NAME    = EARTH
REF_FRAME      = TEME
TIME_SYSTEM    = UTC
MEAN_ELEMENT_THEORY = SGP/SGP4

EPOCH          = 2026-02-19T14:24:14.948928
MEAN_MOTION    = 14.82145767
ECCENTRICITY   = .00012957
INCLINATION    = 97.8870
RA_OF_ASC_NODE = 239.0284
ARG_OF_PERICENTER = 80.3376
MEAN_ANOMALY   = 279.7983

EPHEMERIS_TYPE = 0
CLASSIFICATION_TYPE = U
NORAD_CAT_ID   = 43641
ELEMENT_SET_NO = 999
REV_AT_EPOCH   = 39868
BSTAR          = .32265815E-4
MEAN_MOTION_DOT = .205E-5
MEAN_MOTION_DDOT = 0

CCSDS_OMM_VERS = 2.0
CREATION_DATE  = 
ORIGINATOR     = 

OBJECT_NAME    = H-2A R/B
OBJECT_ID      = 2018-084L
CENTER_NAME    = EARTH
REF_FRAME      = TEME
TIME_SYSTEM    = UTC
MEAN_ELEMENT_THEORY = SGP/SGP4

EPOCH          = 2026-02-19T13:12:35.785152
MEAN_MOTION    = 15.40515820
ECCENTRICITY   = .00263382
INCLINATION    = 98.8743
RA_OF_ASC_NODE = 264.0732
ARG_OF_PERICENTER = 86.2400
MEAN_ANOMALY   = 274.1852

EPHEMERIS_TYPE = 0
CLASSIFICATION_TYPE = U
NORAD_CAT_ID   = 43682
ELEMENT_SET_NO = 999
REV_AT_EPOCH   = 40298
BSTAR          = .45487881E-3
MEAN_MOTION_DOT = .18597E-3
MEAN_MOTION_DDOT = 0

CCSDS_OMM_VERS = 2.0
CREATION_DATE  = 
ORIGINATOR     = 

OBJECT_NAME    = SAOCOM 1B
OBJECT_ID      = 2020-059A
CENTER_NAME    = EARTH
REF_FRAME      = TEME
TIME_SYSTEM    = UTC
MEAN_ELEMENT_THEORY = SGP/SGP4

EPOCH          = 2026-02-19T15:09:15.172704
MEAN_MOTION    = 14.82152241
ECCENTRICITY   = .00015041
INCLINATION    = 97.8870
RA_OF_ASC_NODE = 238.1575
ARG_OF_PERICENTER = 84.5286
MEAN_ANOMALY   = 275.6098

EPHEMERIS_TYPE = 0
CLASSIFICATION_TYPE = U
NORAD_CAT_ID   = 46265
ELEMENT_SET_NO = 999
REV_AT_EPOCH   = 29607
BSTAR          = .78478675E-4
MEAN_MOTION_DOT = .573E-5
MEAN_MOTION_DDOT = 0

CCSDS_OMM_VERS = 2.0
CREATION_DATE  = 
ORIGINATOR     = 

OBJECT_NAME    = CSS (TIANHE)
OBJECT_ID      = 2021-035A
CENTER_NAME    = EARTH
REF_FRAME      = TEME
TIME_SYSTEM    = UTC
MEAN_ELEMENT_THEORY = SGP/SGP4

EPOCH          = 2026-02-19T05:12:18.808704
MEAN_MOTION    = 15.59868728
ECCENTRICITY   = .0004452
INCLINATION    = 41.4677
RA_OF_ASC_NODE = 320.4937
ARG_OF_PERICENTER = 142.8604
MEAN_ANOMALY   = 217.2543

EPHEMERIS_TYPE = 0
CLASSIFICATION_TYPE = U
NORAD_CAT_ID   = 48274
ELEMENT_SET_NO = 999
REV_AT_EPOCH   = 27472
BSTAR          = .3029E-3
MEAN_MOTION_DOT = .24817E-3
MEAN_MOTION_DDOT = 0

CCSDS_OMM_VERS = 2.0
CREATION_DATE  = 
ORIGINATOR     = 

OBJECT_NAME    = COSMOS 2550
OBJECT_ID      = 2021-056A
CENTER_NAME    = EARTH
REF_FRAME      = TEME
TIME_SYSTEM    = UTC
MEAN_ELEMENT_THEORY = SGP/SGP4

EPOCH          = 2026-02-19T15:36:39.261888
MEAN_MOTION    = 15.33826402
ECCENTRICITY   = .0008369
INCLINATION    = 67.1419
RA_OF_ASC_NODE = 95.4987
ARG_OF_PERICENTER = 270.0472
MEAN_ANOMALY   = 89.9724

EPHEMERIS_TYPE = 0
CLASSIFICATION_TYPE = U
NORAD_CAT_ID   = 48865
ELEMENT_SET_NO = 999
REV_AT_EPOCH   = 26069
BSTAR          = .35496E-5
MEAN_MOTION_DOT = -.75E-6
MEAN_MOTION_DDOT = 0

CCSDS_OMM_VERS = 2.0
CREATION_DATE  = 
ORIGINATOR     = 

OBJECT_NAME    = CZ-2C R/B
OBJECT_ID      = 2022-058K
CENTER_NAME    = EARTH
REF_FRAME      = TEME
TIME_SYSTEM    = UTC
MEAN_ELEMENT_THEORY = SGP/SGP4

EPOCH          = 2026-02-19T08:58:08.487840
MEAN_MOTION    = 15.52887151
ECCENTRICITY   = .0042127
INCLINATION    = 50.1886
RA_OF_ASC_NODE = 52.4076
ARG_OF_PERICENTER = 122.8075
MEAN_ANOMALY   = 237.6963

EPHEMERIS_TYPE = 0
CLASSIFICATION_TYPE = U
NORAD_CAT_ID   = 52794
ELEMENT_SET_NO = 999
REV_AT_EPOCH   = 20728
BSTAR          = .46038E-3
MEAN_MOTION_DOT = .29914E-3
MEAN_MOTION_DDOT = 0

