SL-4 R/B                
1 39679U 14021B   26050.44522838  .00013389  00000+0  30213-3 0  9996
2 39679  51.6064  66.2379 0098810  36.4555 324.3103 15.38532899653468
ALOS-2                  
1 39766U 14029A   26050.59329197  .00000302  00000+0  47272-4 0  9995
2 39766  97.9211 149.4518 0001600 100.6964 259.4428 14.79465270634199
YAOGAN-29               
1 41038U 15069A   26050.64433299  .00000954  00000+0  12417-3 0  9995
2 41038  98.0160  79.0235 0002784  65.6659 294.4844 14.82976065553204
ASTRO-H (HITOMI)        
1 41337U 16012A   26050.52110873  .00003009  00000+0  17551-3 0  9991
2 41337  30.9991 113.7798 0009868 150.4198 209.7000 15.09865752549482
HXMT (HUIYAN)           
1 42758U 17034A   26050.60906968  .00005238  00000+0  26732-3 0  9998
2 42758  43.0141 117.1751 0030664 121.5569 238.8280 15.17224412479798
CZ-2C R/B               
1 43521U 18054D   26050.42142919  .00708804  24942-3  86639-3 0  9994
2 43521  35.1271  67.0775 0011436 135.6943 224.4717 16.06843090425964
SAOCOM 1A               
1 43641U 18076A   26050.60017302  .00000205  00000+0  32266-4 0  9991
2 43641  97.8870 239.0284 0001295  80.3376 279.7983 14.82145767398685
H-2A R/B                
1 43682U 18084L   26050.55041418  .00018597  00000+0  45488-3 0  9996
2 43682  98.8743 264.0732 0026338  86.2400 274.1852 15.40515820402983
SAOCOM 1B               
1 46265U 20059A   26050.63142561  .00000573  00000+0  78479-4 0  9993
2 46265  97.8870 238.1575 0001504  84.5286 275.6098 14.82152241296079
CSS (TIANHE)            
1 48274U 21035A   26050.21688436  .00024817  00000+0  30290-3 0  9995
2 48274  41.4677 320.4937 0004452 142.8604 217.2543 15.59868728274729
COSMOS 2550             
1 48865U 21056A   26050.65045442 -.00000075  00000+0  35496-5 0  9992
2 48865  67.1419  95.4987 0008369 270.0472  89.9724 15.33826402260697
CZ-2C R/B               
1 52794U 22058K   26050.37370935  .00029914  00000+0  46038-3 0  9992
2 52794  50.1886  52.4076 0042127 122.8075 237.6963 15.52887151207280
